0 COSMOS 2416
1 28908U 05048A   13282.45348637  .00000029  00000-0  11558-3 0  9039
2 28908 082.4705 030.3037 0007633 073.7839 286.4089 12.55429185357438
0 COSMOS 2416
1 28908U 05048A   13282.69256640  .00000029  00000-0  11558-3 0  9048
2 28908 082.4705 030.1511 0007619 073.3590 286.8330 12.55429171357468
0 COSMOS 2416
1 28908U 05048A   13282.93164653  .00000029  00000-0  11558-3 0  9058
2 28908 082.4706 029.9985 0007627 072.7978 287.3941 12.55429176357494
0 COSMOS 2416
1 28908U 05048A   13283.33011337  .00000029  00000-0  11558-3 0  9064
2 28908 082.4705 029.7439 0007626 071.9815 288.2104 12.55429199357547
0 COSMOS 2416
1 28908U 05048A   13283.80827353  .00000029  00000-0  11558-3 0  9070
2 28908 082.4705 029.4384 0007597 071.2913 288.9000 12.55429174357604
0 COSMOS 2416
1 28908U 05048A   13283.96766019  .00000029  00000-0  11558-3 0  9089
2 28908 082.4704 029.3364 0007600 070.9623 289.2279 12.55429147357623
0 COSMOS 2416
1 28908U 05048A   13284.36612694  .00000029  00000-0  11558-3 0  9094
2 28908 082.4707 029.0817 0007571 070.1549 290.0355 12.55429197357677
0 COSMOS 2416
1 28908U 05048A   13285.40214054  .00000029  00000-0  11558-3 0  9122
2 28908 082.4711 028.4201 0007589 067.6001 292.5885 12.55429221357803
0 COSMOS 2416
1 28908U 05048A   13285.72091403  .00000029  00000-0  11558-3 0  9139
2 28908 082.4708 028.2163 0007592 067.3302 292.8586 12.55429209357840
0 COSMOS 2416
1 28908U 05048A   13286.03968732  .00000029  00000-0  11558-3 0  9143
2 28908 082.4710 028.0129 0007575 066.6408 293.5481 12.55429261357887
0 COSMOS 2416
1 28908U 05048A   13286.43815385  .00000029  00000-0  11558-3 0  9153
2 28908 082.4713 027.7585 0007573 065.9454 294.2420 12.55429272357932
0 COSMOS 2416
1 28908U 05048A   13286.75692733  .00000029  00000-0  11558-3 0  9169
2 28908 082.4713 027.5548 0007581 065.2041 294.9831 12.55429279357977
0 COSMOS 2416
1 28908U 05048A   13286.99600743  .00000029  00000-0  11558-3 0  9176
2 28908 082.4711 027.4020 0007577 064.7443 295.4432 12.55429292358007
0 COSMOS 2416
1 28908U 05048A   13287.47416734  .00000029  00000-0  11558-3 0  9186
2 28908 082.4711 027.0963 0007570 063.8646 296.3219 12.55429320358068
0 COSMOS 2416
1 28908U 05048A   13287.79294071  .00000029  00000-0  11558-3 0  9190
2 28908 082.4708 026.8922 0007569 063.1363 297.0499 12.55429334358101
0 COSMOS 2416
1 28908U 05048A   13287.95232733  .00000029  00000-0  11558-3 0  9207
2 28908 082.4708 026.7904 0007569 062.9247 297.2611 12.55429337358121
0 COSMOS 2416
1 28908U 05048A   13288.35079390  .00000029  00000-0  11558-3 0  9211
2 28908 082.4710 026.5359 0007552 062.3185 297.8669 12.55429375358179
0 COSMOS 2416
1 28908U 05048A   13288.74926055  .00000029  00000-0  11558-3 0  9224
2 28908 082.4710 026.2813 0007551 061.4597 298.7251 12.55429398358225
0 COSMOS 2416
1 28908U 05048A   13289.22742050  .00000029  00000-0  11558-3 0  9230
2 28908 082.4710 025.9759 0007544 060.5559 299.6284 12.55429423358281
0 COSMOS 2416
1 28908U 05048A   13289.30711374  .00000029  00000-0  11558-3 0  9245
2 28908 082.4710 025.9250 0007552 060.2897 299.8942 12.55429437358297
0 COSMOS 2416
1 28908U 05048A   13289.70558034  .00000029  00000-0  11558-3 0  9252
2 28908 082.4709 025.6704 0007553 059.4488 300.7342 12.55429451358341
0 COSMOS 2416
1 28908U 05048A   13289.94466035  .00000029  00000-0  11558-3 0  9268
2 28908 082.4708 025.5176 0007550 058.7557 301.4265 12.55429445358376
0 COSMOS 2416
1 28908U 05048A   13290.26343375  .00000029  00000-0  11558-3 0  9277
2 28908 082.4708 025.3138 0007538 058.2006 301.9818 12.55429466358419
0 COSMOS 2416
1 28908U 05048A   13290.42282031  .00000029  00000-0  11558-3 0  9287
2 28908 082.4709 025.2120 0007524 057.8947 302.2863 12.55429435358436
0 COSMOS 2416
1 28908U 05048A   13290.82128709  .00000029  00000-0  11558-3 0  9293
2 28908 082.4709 024.9573 0007522 057.0808 303.1007 12.55429465358488
0 COSMOS 2416
1 28908U 05048A   13291.21975359  .00000029  00000-0  11558-3 0  9300
2 28908 082.4709 024.7028 0007519 056.2364 303.9444 12.55429502358536
0 COSMOS 2416
1 28908U 05048A   13291.37914011  .00000029  00000-0  11558-3 0  9316
2 28908 082.4710 024.6009 0007528 055.9710 304.2087 12.55429501358555
0 COSMOS 2416
1 28908U 05048A   13291.77760687  .00000029  00000-0  11558-3 0  9329
2 28908 082.4709 024.3461 0007520 055.6822 304.4973 12.55429482358605
0 COSMOS 2416
1 28908U 05048A   13291.93699357  .00000029  00000-0  11558-3 0  9333
2 28908 082.4710 024.2444 0007503 054.8959 305.2832 12.55429495358629
0 COSMOS 2416
1 28908U 05048A   13292.41515331  .00000029  00000-0  11558-3 0  9347
2 28908 082.4710 023.9389 0007491 053.7748 306.4022 12.55429511358682
0 COSMOS 2416
1 28908U 05048A   13292.81362006  .00000029  00000-0  11558-3 0  9351
2 28908 082.4710 023.6841 0007483 053.1016 307.0757 12.55429526358739
0 COSMOS 2416
1 28908U 05048A   13292.89331336  .00000029  00000-0  11558-3 0  9362
2 28908 082.4710 023.6331 0007480 052.9065 307.2705 12.55429530358742
0 COSMOS 2416
1 28908U 05048A   13293.37147317  .00000029  00000-0  11558-3 0  9371
2 28908 082.4709 023.3275 0007482 052.1026 308.0733 12.55429553358807
0 COSMOS 2416
1 28908U 05048A   13293.69024652  .00000029  00000-0  11558-3 0  9383
2 28908 082.4708 023.1237 0007451 051.4772 308.6987 12.55429573358841
0 COSMOS 2416
1 28908U 05048A   13293.92932635  .00000029  00000-0  11558-3 0  9399
2 28908 082.4708 022.9707 0007435 050.7528 309.4212 12.55429553358874
0 COSMOS 2416
1 28908U 05048A   13294.40748633  .00000029  00000-0  11558-3 0  9408
2 28908 082.4712 022.6651 0007418 049.7820 310.3914 12.55429559358931
0 COSMOS 2416
1 28908U 05048A   13294.72625962  .00000029  00000-0  11558-3 0  9413
2 28908 082.4710 022.4611 0007432 049.1317 311.0411 12.55429558358977
0 COSMOS 2416
1 28908U 05048A   13294.88564629  .00000029  00000-0  11558-3 0  9423
2 28908 082.4709 022.3590 0007420 048.8318 311.3407 12.55429554358990
0 COSMOS 2416
1 28908U 05048A   13295.44349945  .00000029  00000-0  11558-3 0  9439
2 28908 082.4707 022.0023 0007422 047.9688 312.2026 12.55429572359064
0 COSMOS 2416
1 28908U 05048A   13295.84196615  .00000029  00000-0  11558-3 0  9448
2 28908 082.4708 021.7479 0007430 046.8360 313.3346 12.55429573359114
0 COSMOS 2416
1 28908U 05048A   13296.08104610  .00000029  00000-0  11558-3 0  9450
2 28908 082.4709 021.5954 0007425 046.5910 313.5794 12.55429577359149
